KUIPER-00095            
1 65134U 25171C   26011.30031576  .00006409  00000+0  58500-3 0  9999
2 65134  51.8946  41.3609 0004105 301.8806  58.1763 14.96158458 24549
KUIPER-00096            
1 65135U 25171D   26011.27698023  .00005141  00000+0  70295-3 0  9999
2 65135  51.9005  51.9630 0002112  29.0964 331.0115 14.79927701 24391
KUIPER-00097            
1 65136U 25171E   26011.27435355  .00002960  00000+0  41719-3 0  9992
2 65136  51.9022  54.5937 0003159 355.5147   4.5787 14.79928652 24340
KUIPER-00098            
1 65137U 25171F   26011.27157727  .00005564  00000+0  75820-3 0  9990
2 65137  51.9004  56.9909 0006741 313.5412  46.4990 14.79931025 23668
KUIPER-00099            
1 65138U 25171G   26011.31619140  .00004569  00000+0  62882-3 0  9996
2 65138  51.9043  46.7639 0001017  78.5049 281.6027 14.79870082 24462
KUIPER-00100            
1 65139U 25171H   26011.33335648 -.00014339  00000+0 -18567-2 0  9995
2 65139  51.9016  44.1758 0001028  87.3721 170.2489 14.79916135  4579
KUIPER-00102            
1 65140U 25171J   26011.28246334  .00003093  00000+0  43507-3 0  9990
2 65140  51.8998  46.9426 0000626  87.7039 272.3995 14.79876215 24459
KUIPER-00103            
1 65141U 25171K   26009.87914938  .00005387  00000+0  73458-3 0  9991
2 65141  51.8995  70.6359 0005243 301.3846  58.6603 14.79962336 24009
